[{"OBJECT_NAME":"PRAETORIAN SDA_608","OBJECT_ID":"2025-203G","EPOCH":"2026-03-09T14:07:41.664288","MEAN_MOTION":13.83886917,"ECCENTRICITY":0.000723,"INCLINATION":81.2974,"RA_OF_ASC_NODE":103.0202,"ARG_OF_PERICENTER":107.803,"MEAN_ANOMALY":252.3916,"EPHEMERIS_TYPE":0,"CLASSIFICATION_TYPE":"U","NORAD_CAT_ID":65571,"ELEMENT_SET_NO":999,"REV_AT_EPOCH":2491,"BSTAR":5.0799e-5,"MEAN_MOTION_DOT":6.8e-7,"MEAN_MOTION_DDOT":0},{"OBJECT_NAME":"SL-8 R\/B","OBJECT_ID":"1981-053B","EPOCH":"2026-03-09T18:22:25.749984","MEAN_MOTION":13.76634531,"ECCENTRICITY":0.0036225,"INCLINATION":82.9575,"RA_OF_ASC_NODE":301.4709,"ARG_OF_PERICENTER":290.996,"MEAN_ANOMALY":68.7323,"EPHEMERIS_TYPE":0,"CLASSIFICATION_TYPE":"U","NORAD_CAT_ID":12508,"ELEMENT_SET_NO":999,"REV_AT_EPOCH":25373,"BSTAR":4.655481e-5,"MEAN_MOTION_DOT":6.1e-7,"MEAN_MOTION_DDOT":0}]
